SL-4 R/B                
1 39679U 14021B   25364.56232552  .00016086  00000+0  37677-3 0  9995
2 39679  51.6083 313.9519 0100355 210.6128 148.8975 15.37114740645633
ALOS-2                  
1 39766U 14029A   25364.80100167  .00005904  00000+0  79631-3 0  9996
2 39766  97.9213  99.3896 0001340  96.3654 263.7710 14.79494213626687
YAOGAN-29               
1 41038U 15069A   25364.83592977  .00001080  00000+0  13990-3 0  9990
2 41038  98.0214  28.0647 0001334 152.9050 207.2233 14.82904991545675
ASTRO-H (HITOMI)        
1 41337U 16012A   25364.54491750  .00005837  00000+0  34951-3 0  9990
2 41337  30.9999  82.5743 0009605 357.4048   2.6539 15.09483600541774
HXMT (HUIYAN)           
1 42758U 17034A   25364.57616041  .00010938  00000+0  55591-3 0  9999
2 42758  43.0153  40.6355 0031849 160.0131 200.1971 15.16475743472044
CZ-2C R/B               
1 43521U 18054D   25364.47086471  .00166066  00000+0  90938-3 0  9996
2 43521  35.1333  60.3140 0013438 319.5558  40.4177 15.78218532417854
SAOCOM 1A               
1 43641U 18076A   25364.76475513  .00000403  00000+0  57231-4 0  9996
2 43641  97.8849 188.9241 0001424  82.0562 278.0812 14.82154587391154
H-2A R/B                
1 43682U 18084L   25364.65255429  .00030245  00000+0  79766-3 0  9993
2 43682  98.8767 202.4539 0026181 263.5082  96.3177 15.38103922395159
SAOCOM 1B               
1 46265U 20059A   25364.79599837  .00000992  00000+0  13110-3 0  9994
2 46265  97.8845 188.0545 0001415  84.1215 276.0159 14.82159487288545
CSS (TIANHE)            
1 48274U 21035A   25364.77333338  .00024941  00000+0  30324-3 0  9997
2 48274  41.4669 267.1660 0009716 184.6419 175.4330 15.59924070266842
COSMOS 2550             
1 48865U 21056A   25364.98417108 -.00000176  00000+0  47448-6 0  9990
2 48865  67.1417 248.7510 0008364 270.0048  90.0148 15.33835013252922
CZ-2C R/B               
1 52794U 22058K   25364.28980737  .00045940  00000+0  78995-3 0  9990
2 52794  50.1913 313.9891 0044129 270.5241  89.0671 15.49507691199358
